{
  "type": "FeatureCollection",
  "features": [
    {
      "type": "Feature",
      "properties": {
        "norad_id": 67116,
        "name": "STARLINK-35738",
        "group": "last-30-days",
        "lat": -38.31558654187126,
        "lon": 124.14867802623769,
        "alt_km": 310.38147776906135,
        "timestamp": "2025-12-24T05:51:18.329455+00:00",
        "meta_object_name": "STARLINK-35738",
        "meta_object_id": "2025-299Q",
        "meta_epoch": "2025-12-23T22:00:01.999584",
        "meta_mean_motion": 15.89117346,
        "meta_eccentricity": 0.00014395,
        "meta_inclination": 42.9978,
        "meta_ra_of_asc_node": 248.172,
        "meta_arg_of_pericenter": 267.7693,
        "meta_mean_anomaly": 263.8265,
        "meta_ephemeris_type": 0,
        "meta_classification_type": "U",
        "meta_norad_cat_id": 67116,
        "meta_element_set_no": 999,
        "meta_rev_at_epoch": 249,
        "meta_bstar": -0.0069415498,
        "meta_mean_motion_dot": -0.01782785,
        "meta_mean_motion_ddot": 0,
        "tle_line1": "1 67116U 25299Q   25357.91668981 -.01782785  00000+0 -69415-2 0  9994",
        "tle_line2": "2 67116  42.9978 248.1720 0001439 267.7693 263.8265 15.89117346  2495"
      },
      "geometry": {
        "type": "Point",
        "coordinates": [
          124.14867802623769,
          -38.31558654187126
        ]
      }
    },
    {
      "type": "Feature",
      "properties": {
        "norad_id": 67117,
        "name": "STARLINK-35674",
        "group": "last-30-days",
        "lat": -38.9048727112118,
        "lon": 126.15582539281831,
        "alt_km": 310.3683755715074,
        "timestamp": "2025-12-24T05:51:18.329467+00:00",
        "meta_object_name": "STARLINK-35674",
        "meta_object_id": "2025-299R",
        "meta_epoch": "2025-12-23T22:00:01.999584",
        "meta_mean_motion": 15.89127335,
        "meta_eccentricity": 0.0001418,
        "meta_inclination": 42.9979,
        "meta_ra_of_asc_node": 248.1678,
        "meta_arg_of_pericenter": 265.1589,
        "meta_mean_anomaly": 268.1066,
        "meta_ephemeris_type": 0,
        "meta_classification_type": "U",
        "meta_norad_cat_id": 67117,
        "meta_element_set_no": 999,
        "meta_rev_at_epoch": 239,
        "meta_bstar": -0.0069578717,
        "meta_mean_motion_dot": -0.01787136,
        "meta_mean_motion_ddot": 0,
        "tle_line1": "1 67117U 25299R   25357.91668981 -.01787136  00000+0 -69579-2 0  9991",
        "tle_line2": "2 67117  42.9979 248.1678 0001418 265.1589 268.1066 15.89127335  2397"
      },
      "geometry": {
        "type": "Point",
        "coordinates": [
          126.15582539281831,
          -38.9048727112118
        ]
      }
    },
    {
      "type": "Feature",
      "properties": {
        "norad_id": 67118,
        "name": "STARLINK-35701",
        "group": "last-30-days",
        "lat": -39.472794897470635,
        "lon": 128.24901924046497,
        "alt_km": 310.33870501332785,
        "timestamp": "2025-12-24T05:51:18.329477+00:00",
        "meta_object_name": "STARLINK-35701",
        "meta_object_id": "2025-299S",
        "meta_epoch": "2025-12-23T22:00:01.999584",
        "meta_mean_motion": 15.89126561,
        "meta_eccentricity": 0.00015271,
        "meta_inclination": 42.9978,
        "meta_ra_of_asc_node": 248.1635,
        "meta_arg_of_pericenter": 269.5013,
        "meta_mean_anomaly": 265.4883,
        "meta_ephemeris_type": 0,
        "meta_classification_type": "U",
        "meta_norad_cat_id": 67118,
        "meta_element_set_no": 999,
        "meta_rev_at_epoch": 255,
        "meta_bstar": -0.0069305934,
        "meta_mean_motion_dot": -0.01781192,
        "meta_mean_motion_ddot": 0,
        "tle_line1": "1 67118U 25299S   25357.91668981 -.01781192  00000+0 -69306-2 0  9996",
        "tle_line2": "2 67118  42.9978 248.1635 0001527 269.5013 265.4883 15.89126561  2556"
      },
      "geometry": {
        "type": "Point",
        "coordinates": [
          128.24901924046497,
          -39.472794897470635
        ]
      }
    },
    {
      "type": "Feature",
      "properties": {
        "norad_id": 67119,
        "name": "STARLINK-36179",
        "group": "last-30-days",
        "lat": -40.282221050346685,
        "lon": 131.58218286298867,
        "alt_km": 310.2856428709247,
        "timestamp": "2025-12-24T05:51:18.329487+00:00",
        "meta_object_name": "STARLINK-36179",
        "meta_object_id": "2025-299T",
        "meta_epoch": "2025-12-23T22:00:01.999584",
        "meta_mean_motion": 15.89165149,
        "meta_eccentricity": 0.00014556,
        "meta_inclination": 42.9976,
        "meta_ra_of_asc_node": 248.1565,
        "meta_arg_of_pericenter": 266.6242,
        "meta_mean_anomaly": 271.0131,
        "meta_ephemeris_type": 0,
        "meta_classification_type": "U",
        "meta_norad_cat_id": 67119,
        "meta_element_set_no": 999,
        "meta_rev_at_epoch": 260,
        "meta_bstar": -0.006950741,
        "meta_mean_motion_dot": -0.01788577,
        "meta_mean_motion_ddot": 0,
        "tle_line1": "1 67119U 25299T   25357.91668981 -.01788577  00000+0 -69507-2 0  9994",
        "tle_line2": "2 67119  42.9976 248.1565 0001455 266.6242 271.0131 15.89165149  2609"
      },
      "geometry": {
        "type": "Point",
        "coordinates": [
          131.58218286298867,
          -40.282221050346685
        ]
      }
    },
    {
      "type": "Feature",
      "properties": {
        "norad_id": 67120,
        "name": "STARLINK-36217",
        "group": "last-30-days",
        "lat": -39.92054561384435,
        "lon": 130.03361633622885,
        "alt_km": 310.37209621029797,
        "timestamp": "2025-12-24T05:51:18.329499+00:00",
        "meta_object_name": "STARLINK-36217",
        "meta_object_id": "2025-299U",
        "meta_epoch": "2025-12-23T22:00:01.999584",
        "meta_mean_motion": 15.89136797,
        "meta_eccentricity": 0.00014419,
        "meta_inclination": 42.9978,
        "meta_ra_of_asc_node": 248.1598,
        "meta_arg_of_pericenter": 270.3208,
        "meta_mean_anomaly": 266.1035,
        "meta_ephemeris_type": 0,
        "meta_classification_type": "U",
        "meta_norad_cat_id": 67120,
        "meta_element_set_no": 999,
        "meta_rev_at_epoch": 260,
        "meta_bstar": -0.0069106719,
        "meta_mean_motion_dot": -0.01777504,
        "meta_mean_motion_ddot": 0,
        "tle_line1": "1 67120U 25299U   25357.91668981 -.01777504  00000+0 -69107-2 0  9990",
        "tle_line2": "2 67120  42.9978 248.1598 0001441 270.3208 266.1035 15.89136797  2603"
      },
      "geometry": {
        "type": "Point",
        "coordinates": [
          130.03361633622885,
          -39.92054561384435
        ]
      }
    },
    {
      "type": "Feature",
      "properties": {
        "norad_id": 67121,
        "name": "STARLINK-36124",
        "group": "last-30-days",
        "lat": -41.170829184842745,
        "lon": 135.93806540711765,
        "alt_km": 310.31249904598644,
        "timestamp": "2025-12-24T05:51:18.329509+00:00",
        "meta_object_name": "STARLINK-36124",
        "meta_object_id": "2025-299V",
        "meta_epoch": "2025-12-23T22:00:01.999584",
        "meta_mean_motion": 15.8917739,
        "meta_eccentricity": 0.00013764,
        "meta_inclination": 42.9978,
        "meta_ra_of_asc_node": 248.1481,
        "meta_arg_of_pericenter": 264.9684,
        "meta_mean_anomaly": 276.0811,
        "meta_ephemeris_type": 0,
        "meta_classification_type": "U",
        "meta_norad_cat_id": 67121,
        "meta_element_set_no": 999,
        "meta_rev_at_epoch": 260,
        "meta_bstar": -0.0069385379,
        "meta_mean_motion_dot": -0.01786758,
        "meta_mean_motion_ddot": 0,
        "tle_line1": "1 67121U 25299V   25357.91668981 -.01786758  00000+0 -69385-2 0  9990",
        "tle_line2": "2 67121  42.9978 248.1481 0001376 264.9684 276.0811 15.89177390  2605"
      },
      "geometry": {
        "type": "Point",
        "coordinates": [
          135.93806540711765,
          -41.170829184842745
        ]
      }
    },
    {
      "type": "Feature",
      "properties": {
        "norad_id": 67122,
        "name": "STARLINK-36188",
        "group": "last-30-days",
        "lat": -41.496957931147506,
        "lon": 137.81774817279805,
        "alt_km": 310.29586719209783,
        "timestamp": "2025-12-24T05:51:18.329519+00:00",
        "meta_object_name": "STARLINK-36188",
        "meta_object_id": "2025-299W",
        "meta_epoch": "2025-12-23T22:00:01.999584",
        "meta_mean_motion": 15.89190563,
        "meta_eccentricity": 0.00013527,
        "meta_inclination": 42.9979,
        "meta_ra_of_asc_node": 248.1446,
        "meta_arg_of_pericenter": 263.938,
        "meta_mean_anomaly": 278.5482,
        "meta_ephemeris_type": 0,
        "meta_classification_type": "U",
        "meta_norad_cat_id": 67122,
        "meta_element_set_no": 999,
        "meta_rev_at_epoch": 260,
        "meta_bstar": -0.0069317922,
        "meta_mean_motion_dot": -0.01786277,
        "meta_mean_motion_ddot": 0,
        "tle_line1": "1 67122U 25299W   25357.91668981 -.01786277  00000+0 -69318-2 0  9993",
        "tle_line2": "2 67122  42.9979 248.1446 0001352 263.9380 278.5482 15.89190563  2602"
      },
      "geometry": {
        "type": "Point",
        "coordinates": [
          137.81774817279805,
          -41.496957931147506
        ]
      }
    }
  ]
}